COMMENT,ORIGINATOR,NORAD_CAT_ID,OBJECT_NAME,OBJECT_TYPE,CLASSIFICATION_TYPE,INTLDES,EPOCH,EPOCH_MICROSECONDS,MEAN_MOTION,ECCENTRICITY,INCLINATION,RA_OF_ASC_NODE,ARG_OF_PERICENTER,MEAN_ANOMALY,EPHEMERIS_TYPE,ELEMENT_SET_NO,REV_AT_EPOCH,BSTAR,MEAN_MOTION_DOT,MEAN_MOTION_DDOT,FILE,TLE_LINE0,TLE_LINE1,TLE_LINE2,OBJECT_ID,OBJECT_NUMBER,SEMIMAJOR_AXIS,PERIOD,APOGEE,PERIGEE,DECAYED
"GENERATED VIA SPACETRACK.ORG API","18 SPCS","55102","SPACEBEE-157","PAYLOAD","U","23001CX","2023-11-27 15:50:43","772640","15.29416426","0.0012643","97.4531","31.238","145.6455","214.5605","0","999","5001","0.0013426","0.00038462","0","4110225","0 SPACEBEE-157","1 55102U 23001CX  23331.66022885  .00038462  00000-0  13426-2 0  9999","2 55102  97.4531  31.2380 0012643 145.6455 214.5605 15.29416426 50016","2023-001CX","55102","6855.693","94.154","486.225","468.890","0"
"GENERATED VIA SPACETRACK.ORG API","18 SPCS","55102","SPACEBEE-157","PAYLOAD","U","23001CX","2023-11-28 02:50:13","162560","15.29459467","0.0012618","97.453","31.6969","144.0164","216.1928","0","999","5008","0.0015031","0.00043152","0","4111292","0 SPACEBEE-157","1 55102U 23001CX  23332.11820790  .00043152  00000-0  15031-2 0  9997","2 55102  97.4530  31.6969 0012618 144.0164 216.1928 15.29459467 50089","2023-001CX","55102","6855.564","94.151","486.079","468.779","0"
"GENERATED VIA SPACETRACK.ORG API","18 SPCS","55102","SPACEBEE-157","PAYLOAD","U","23001CX","2023-11-28 02:50:13","162560","15.29459467","0.0012618","97.453","31.6969","144.0164","216.1928","0","999","5008","0.0015031","0.00043152","0","4111489","0 SPACEBEE-157","1 55102U 23001CX  23332.11820790  .00043152  00000-0  15031-2 0  9997","2 55102  97.4530  31.6969 0012618 144.0164 216.1928 15.29459467 50089","2023-001CX","55102","6855.564","94.151","486.079","468.779","0"
"GENERATED VIA SPACETRACK.ORG API","18 SPCS","55102","SPACEBEE-157","PAYLOAD","U","23001CX","2023-11-28 16:58:06","574656","15.29509434","0.0012694","97.4532","32.2877","141.9014","218.3126","0","999","5017","0.0013926","0.0004002","0","4112264","0 SPACEBEE-157","1 55102U 23001CX  23332.70702054  .00040020  00000-0  13926-2 0  9996","2 55102  97.4532  32.2877 0012694 141.9014 218.3126 15.29509434 50174","2023-001CX","55102","6855.415","94.148","485.982","468.577","0"
"GENERATED VIA SPACETRACK.ORG API","18 SPCS","55102","SPACEBEE-157","PAYLOAD","U","23001CX","2023-11-29 03:57:33","535008","15.29553912","0.0012662","97.4527","32.7466","140.4464","219.7702","0","999","5024","0.0015352","0.0004421","0","4112506","0 SPACEBEE-157","1 55102U 23001CX  23333.16497147  .00044210  00000-0  15352-2 0  9991","2 55102  97.4527  32.7466 0012662 140.4464 219.7702 15.29553912 50248","2023-001CX","55102","6855.282","94.145","485.827","468.467","0"
"GENERATED VIA SPACETRACK.ORG API","18 SPCS","55102","SPACEBEE-157","PAYLOAD","U","23001CX","2023-11-29 03:57:33","535008","15.29553912","0.0012662","97.4527","32.7466","140.4464","219.7702","0","999","5024","0.0015352","0.0004421","0","4113103","0 SPACEBEE-157","1 55102U 23001CX  23333.16497147  .00044210  00000-0  15352-2 0  9991","2 55102  97.4527  32.7466 0012662 140.4464 219.7702 15.29553912 50248","2023-001CX","55102","6855.282","94.145","485.827","468.467","0"
"GENERATED VIA SPACETRACK.ORG API","18 SPCS","55102","SPACEBEE-157","PAYLOAD","U","23001CX","2023-11-30 09:47:24","117792","15.29666415","0.0012606","97.4521","33.9924","135.6337","224.5915","0","999","5043","0.0015123","0.00043697","0","4114584","0 SPACEBEE-157","1 55102U 23001CX  23334.40791803  .00043697  00000-0  15123-2 0  9999","2 55102  97.4521  33.9924 0012606 135.6337 224.5915 15.29666415 50431","2023-001CX","55102","6854.946","94.138","485.452","468.169","0"
"GENERATED VIA SPACETRACK.ORG API","18 SPCS","55102","SPACEBEE-157","PAYLOAD","U","23001CX","2023-12-01 10:54:32","434848","15.29757773","0.0012744","97.4518","35.0412","132.9023","227.3289","0","999","5059","0.0016314","0.00047301","0","4116062","0 SPACEBEE-157","1 55102U 23001CX  23335.45454207  .00047301  00000-0  16314-2 0  9998","2 55102  97.4518  35.0412 0012744 132.9023 227.3289 15.29757773 50597","2023-001CX","55102","6854.673","94.133","485.273","467.802","0"
"GENERATED VIA SPACETRACK.ORG API","18 SPCS","55102","SPACEBEE-157","PAYLOAD","U","23001CX","2023-12-01 21:53:52","738080","15.29816017","0.0012857","97.4519","35.5004","131.3143","228.9207","0","999","5066","0.0019875","0.00057828","0","4116981","0 SPACEBEE-157","1 55102U 23001CX  23335.91241595  .00057828  00000-0  19875-2 0  9993","2 55102  97.4519  35.5004 0012857 131.3143 228.9207 15.29816017 50663","2023-001CX","55102","6854.499","94.129","485.177","467.551","0"
"GENERATED VIA SPACETRACK.ORG API","18 SPCS","55102","SPACEBEE-157","PAYLOAD","U","23001CX","2023-12-01 23:28:04","80864","15.29824579","0.0012855","97.4519","35.566","131.074","229.1613","0","999","5067","0.0019976","0.0005814","0","4117272","0 SPACEBEE-157","1 55102U 23001CX  23335.97782501  .00058140  00000-0  19976-2 0  9996","2 55102  97.4519  35.5660 0012855 131.0740 229.1613 15.29824579 50676","2023-001CX","55102","6854.473","94.128","485.150","467.527","0"
"GENERATED VIA SPACETRACK.ORG API","18 SPCS","55102","SPACEBEE-157","PAYLOAD","U","23001CX","2023-12-02 02:36:26","788896","15.29863465","0.0012882","97.4519","35.6969","130.6968","229.5394","0","999","5069","0.0041177","0.00121065","0","4118120","0 SPACEBEE-157","1 55102U 23001CX  23336.10864339  .00121065  00000-0  41177-2 0  9997","2 55102  97.4519  35.6969 0012882 130.6968 229.5394 15.29863465 50695","2023-001CX","55102","6854.357","94.126","485.052","467.392","0"
"GENERATED VIA SPACETRACK.ORG API","18 SPCS","55102","SPACEBEE-157","PAYLOAD","U","23001CX","2023-12-02 13:35:44","654784","15.29896494","0.0012896","97.4519","36.1564","128.9531","231.2861","0","999","5076","0.0011457","0.00033279","0","4118466","0 SPACEBEE-157","1 55102U 23001CX  23336.56648906  .00033279  00000-0  11457-2 0  9994","2 55102  97.4519  36.1564 0012896 128.9531 231.2861 15.29896494 50768","2023-001CX","55102","6854.258","94.124","484.963","467.284","0"
"GENERATED VIA SPACETRACK.ORG API","18 SPCS","55102","SPACEBEE-157","PAYLOAD","U","23001CX","2023-12-02 18:18:17","767296","15.29915846","0.0012889","97.4517","36.3529","128.4415","231.7984","0","999","5079","0.0011622","0.00033782","0","4118901","0 SPACEBEE-157","1 55102U 23001CX  23336.76270564  .00033782  00000-0  11622-2 0  9990","2 55102  97.4517  36.3529 0012889 128.4415 231.7984 15.29915846 50794","2023-001CX","55102","6854.201","94.123","484.900","467.231","0"
"GENERATED VIA SPACETRACK.ORG API","18 SPCS","55102","SPACEBEE-157","PAYLOAD","U","23001CX","2023-12-02 21:26:39","671808","15.29926568","0.00129","97.4518","36.4839","128.1542","232.0863","0","999","5081","0.00096329","0.00027975","0","4119201","0 SPACEBEE-157","1 55102U 23001CX  23336.89351472  .00027975  00000-0  96329-3 0  9997","2 55102  97.4518  36.4839 0012900 128.1542 232.0863 15.29926568 50818","2023-001CX","55102","6854.169","94.122","484.875","467.192","0"
"GENERATED VIA SPACETRACK.ORG API","18 SPCS","55102","SPACEBEE-157","PAYLOAD","U","23001CX","2023-12-03 03:43:23","413440","15.29947264","0.0012922","97.4518","36.7461","127.3945","232.8474","0","999","5085","0.00097233","0.00028257","0","4120389","0 SPACEBEE-157","1 55102U 23001CX  23337.15513210  .00028257  00000-0  97233-3 0  9996","2 55102  97.4518  36.7461 0012922 127.3945 232.8474 15.29947264 50850","2023-001CX","55102","6854.107","94.121","484.829","467.115","0"
"GENERATED VIA SPACETRACK.ORG API","18 SPCS","55102","SPACEBEE-157","PAYLOAD","U","23001CX","2023-12-04 03:16:05","78496","15.30010356","0.0012882","97.4518","37.7297","124.3543","235.8918","0","999","5100","0.0011132","0.00032443","0","4121367","0 SPACEBEE-157","1 55102U 23001CX  23338.13616989  .00032443  00000-0  11132-2 0  9997","2 55102  97.4518  37.7297 0012882 124.3543 235.8918 15.30010356 51003","2023-001CX","55102","6853.918","94.117","484.613","466.954","0"
"GENERATED VIA SPACETRACK.ORG API","18 SPCS","55102","SPACEBEE-157","PAYLOAD","U","23001CX","2023-12-04 03:16:05","78496","15.30010356","0.0012882","97.4518","37.7297","124.3543","235.8918","0","999","5100","0.0011132","0.00032443","0","4122164","0 SPACEBEE-157","1 55102U 23001CX  23338.13616989  .00032443  00000-0  11132-2 0  9997","2 55102  97.4518  37.7297 0012882 124.3543 235.8918 15.30010356 51003","2023-001CX","55102","6853.918","94.117","484.613","466.954","0"
"GENERATED VIA SPACETRACK.ORG API","18 SPCS","55102","SPACEBEE-157","PAYLOAD","U","23001CX","2023-12-05 02:48:43","355808","15.30072219","0.0012922","97.4521","38.7138","121.0672","239.1838","0","999","5115","0.0010959","0.00031997","0","4123878","0 SPACEBEE-157","1 55102U 23001CX  23339.11716847  .00031997  00000-0  10959-2 0  9999","2 55102  97.4521  38.7138 0012922 121.0672 239.1838 15.30072219 51154","2023-001CX","55102","6853.734","94.113","484.455","466.742","0"
"GENERATED VIA SPACETRACK.ORG API","18 SPCS","55102","SPACEBEE-157","PAYLOAD","U","23001CX","2023-12-06 03:55:28","316352","15.30138506","0.0012956","97.4525","39.7638","117.4583","242.7977","0","999","5131","0.0010375","0.00030344","0","4124700","0 SPACEBEE-157","1 55102U 23001CX  23340.16352218  .00030344  00000-0  10375-2 0  9991","2 55102  97.4525  39.7638 0012956 117.4583 242.7977 15.30138506 51315","2023-001CX","55102","6853.536","94.109","484.280","466.521","0"
"GENERATED VIA SPACETRACK.ORG API","18 SPCS","55102","SPACEBEE-157","PAYLOAD","U","23001CX","2023-12-06 03:55:28","316352","15.30138506","0.0012956","97.4525","39.7638","117.4583","242.7977","0","999","5131","0.0010375","0.00030344","0","4125534","0 SPACEBEE-157","1 55102U 23001CX  23340.16352218  .00030344  00000-0  10375-2 0  9991","2 55102  97.4525  39.7638 0012956 117.4583 242.7977 15.30138506 51315","2023-001CX","55102","6853.536","94.109","484.280","466.521","0"
